#dV2023  2  5 22  0  0.00000000    1682       CTS   FIT  GFZ
## 2248  79200.00000000    30.00000000 59980 0.9166666666667
+    1   L65  0  0  0  0  0  0  0  0  0  0  0  0  0  0  0  0
+          0  0  0  0  0  0  0  0  0  0  0  0  0  0  0  0  0
+          0  0  0  0  0  0  0  0  0  0  0  0  0  0  0  0  0
+          0  0  0  0  0  0  0  0  0  0  0  0  0  0  0  0  0
+          0  0  0  0  0  0  0  0  0  0  0  0  0  0  0  0  0
++         0  0  0  0  0  0  0  0  0  0  0  0  0  0  0  0  0
++         0  0  0  0  0  0  0  0  0  0  0  0  0  0  0  0  0
++         0  0  0  0  0  0  0  0  0  0  0  0  0  0  0  0  0
++         0  0  0  0  0  0  0  0  0  0  0  0  0  0  0  0  0
++         0  0  0  0  0  0  0  0  0  0  0  0  0  0  0  0  0
%c L  cc GPS ccc cccc cccc cccc cccc ccccc ccccc ccccc ccccc
%c cc cc ccc ccc cccc cccc cccc cccc ccccc ccccc ccccc ccccc
%f  0.0000000  0.000000000  0.00000000000  0.000000000000000
%f  0.0000000  0.000000000  0.00000000000  0.000000000000000
%i    0    0    0    0      0      0      0      0         0
%i    0    0    0    0      0      0      0      0         0
/* CCCCCCCCCCCCCCCCCCCCCCCCCCCCCCCCCCCCCCCCCCCCCCCCCCCCCCCCCCCCCCCCCCCCCCCCCCCCC
/* C                             GFZ RSO-ORBIT                                 C
/* C DOI: https://doi.org/10.5880/GFZ_ORBIT/RSO/L65_G_v02                      C
/* C                                                                           C
/* C DORIS        RMS: not applicable                                          C
/* C GNSS-E Code  RMS: not applicable                                          C
/* C GNSS-E Phase RMS: not applicable                                          C
/* C GNSS-G Code  RMS:  47.514 [cm]   Obs.acc.:     14048 Obs.eli.:      1117  C
/* C GNSS-G Phase RMS:   4.207 [mm]   Obs.acc.:     14048 Obs.eli.:      1117  C
/* C SLR          RMS: not applicable                                          C
/* C                                                                           C
/* CCCCCCCCCCCCCCCCCCCCCCCCCCCCCCCCCCCCCCCCCCCCCCCCCCCCCCCCCCCCCCCCCCCCCCCCCCCCC
*  2023  2  6  9 28 30.00000000
PL65   -194.114043  -6759.047873   1160.140463   2086.205979
VL65  -3939.367362 -12893.704944 -75173.029012 999999.999999
*  2023  2  6  9 29  0.00000000
PL65   -205.901569  -6793.953670    934.016347   2086.675071
VL65  -3916.421706 -10374.723105 -75562.364268 999999.999999
*  2023  2  6  9 29 30.00000000
PL65   -217.597194  -6821.285045    706.850580   2087.144352
VL65  -3878.098257  -7844.575145 -75867.400153 999999.999999
*  2023  2  6  9 30  0.00000000
PL65   -229.154782  -6841.012871    478.896579   2087.613464
VL65  -3824.399818  -5306.176746 -76087.806650 999999.999999
*  2023  2  6  9 30 30.00000000
PL65   -240.528250  -6853.116779    250.408604   2088.082836
VL65  -3755.358954  -2762.451611 -76223.352179 999999.999999
*  2023  2  6  9 31  0.00000000
PL65   -251.671655  -6857.585182     21.641463   2088.552096
VL65  -3671.038077   -216.328719 -76273.904086 999999.999999
*  2023  2  6  9 31 30.00000000
PL65   -262.539289  -6854.415284   -207.149790   2089.020992
VL65  -3571.529610   2329.261844 -76239.429588 999999.999999
*  2023  2  6  9 32  0.00000000
PL65   -273.085766  -6843.613070   -435.710152   2089.490719
VL65  -3456.955755   4871.393678 -76119.995582 999999.999999
*  2023  2  6  9 32 30.00000000
PL65   -283.266109  -6825.193299   -663.784967   2089.959641
VL65  -3327.467983   7407.148101 -75915.767663 999999.999999
*  2023  2  6  9 33  0.00000000
PL65   -293.035840  -6799.179467   -891.120224   2090.428881
VL65  -3183.246835   9933.617483 -75627.009098 999999.999999
*  2023  2  6  9 33 30.00000000
PL65   -302.351065  -6765.603774  -1117.462848   2090.897871
VL65  -3024.501798  12447.908253 -75254.080131 999999.999999
*  2023  2  6  9 34  0.00000000
PL65   -311.168564  -6724.507074  -1342.560988   2091.367099
VL65  -2851.471015  14947.143965 -74797.437604 999999.999999
*  2023  2  6  9 34 30.00000000
PL65   -319.445871  -6675.938822  -1566.164310   2091.836401
VL65  -2664.420926  17428.468655 -74257.634729 999999.999999
*  2023  2  6  9 35  0.00000000
PL65   -327.141364  -6619.957005  -1788.024282   2092.305534
VL65  -2463.645840  19889.050669 -73635.320805 999999.999999
*  2023  2  6  9 35 30.00000000
PL65   -334.214342  -6556.628064  -2007.894465   2092.774823
VL65  -2249.467388  22326.086975 -72931.240328 999999.999999
*  2023  2  6  9 36  0.00000000
PL65   -340.625112  -6486.026801  -2225.530792   2093.243878
VL65  -2022.234025  24736.807037 -72146.231193 999999.999999
*  2023  2  6  9 36 30.00000000
PL65   -346.335065  -6408.236275  -2440.691850   2093.713167
VL65  -1782.320615  27118.475742 -71281.222978 999999.999999
*  2023  2  6  9 37  0.00000000
PL65   -351.306756  -6323.347696  -2653.139148   2094.182365
VL65  -1530.127811  29468.396298 -70337.235796 999999.999999
*  2023  2  6  9 37 30.00000000
PL65   -355.503978  -6231.460302  -2862.637392   2094.651593
VL65  -1266.081306  31783.913502 -69315.379175 999999.999999
*  2023  2  6  9 38  0.00000000
PL65   -358.891839  -6132.681230  -3068.954749   2095.120555
VL65   -990.631053  34062.417264 -68216.850749 999999.999999
*  2023  2  6  9 38 30.00000000
PL65   -361.436833  -6027.125375  -3271.863106   2095.590069
VL65   -704.250534  36301.346299 -67042.934484 999999.999999
*  2023  2  6  9 39  0.00000000
PL65   -363.106907  -5914.915238  -3471.138333   2096.059198
VL65   -407.436102  38498.191575 -65794.998397 999999.999999
*  2023  2  6  9 39 30.00000000
PL65   -363.871533  -5796.180765  -3666.560524   2096.528668
VL65   -100.706158  40650.499413 -64474.492003 999999.999999
*  2023  2  6  9 40  0.00000000
PL65   -363.701768  -5671.059176  -3857.914240   2096.997803
VL65    215.399910  42755.874093 -63082.943420 999999.999999
*  2023  2  6  9 40 30.00000000
PL65   -362.570316  -5539.694791  -4044.988744   2097.466861
VL65    540.322795  44811.979548 -61621.956781 999999.999999
*  2023  2  6  9 41  0.00000000
PL65   -360.451592  -5402.238845  -4227.578219   2097.936199
VL65    873.484164  46816.541007 -60093.210577 999999.999999
*  2023  2  6  9 41 30.00000000
PL65   -357.321769  -5258.849303  -4405.481997   2098.405219
VL65   1214.287307  48767.347440 -58498.456168 999999.999999
*  2023  2  6  9 42  0.00000000
PL65   -353.158840  -5109.690662  -4578.504768   2098.874705
VL65   1562.117858  50662.254421 -56839.515739 999999.999999
*  2023  2  6  9 42 30.00000000
PL65   -347.942665  -4954.933753  -4746.456793   2099.343843
VL65   1916.344865  52499.186847 -55118.279508 999999.999999
*  2023  2  6  9 43  0.00000000
PL65   -341.655020  -4794.755522  -4909.154102   2099.813114
VL65   2276.322022  54276.140714 -53336.702842 999999.999999
*  2023  2  6  9 43 30.00000000
PL65   -334.279643  -4629.338821  -5066.418686   2100.282309
VL65   2641.388766  55991.184810 -51496.804210 999999.999999
*  2023  2  6  9 44  0.00000000
PL65   -325.802271  -4458.872182  -5218.078683   2100.751791
VL65   3010.871230  57642.463148 -49600.662746 999999.999999
*  2023  2  6  9 44 30.00000000
PL65   -316.210685  -4283.549589  -5363.968555   2101.221077
VL65   3384.083393  59228.196815 -47650.415066 999999.999999
*  2023  2  6  9 45  0.00000000
PL65   -305.494738  -4103.570249  -5503.929257   2101.690146
VL65   3760.328338  60746.685160 -45648.252435 999999.999999
*  2023  2  6  9 45 30.00000000
PL65   -293.646389  -3919.138348  -5637.808396   2102.159395
VL65   4138.899324  62196.307055 -43596.418308 999999.999999
*  2023  2  6  9 46  0.00000000
PL65   -280.659731  -3730.462816  -5765.460386   2102.628770
VL65   4519.080781  63575.522322 -41497.205786 999999.999999
*  2023  2  6  9 46 30.00000000
PL65   -266.531017  -3537.757081  -5886.746591   2103.098192
VL65   4900.149309  64882.872981 -39352.955137 999999.999999
*  2023  2  6  9 47  0.00000000
PL65   -251.258678  -3341.238820  -6001.535463   2103.567321
VL65   5281.374687  66116.984833 -37166.051313 999999.999999
*  2023  2  6  9 47 30.00000000
PL65   -234.843348  -3141.129703  -6109.702671   2104.036484
VL65   5662.021022  67276.568899 -34938.920584 999999.999999
*  2023  2  6  9 48  0.00000000
PL65   -217.287872  -2937.655140  -6211.131222   2104.505879
VL65   6041.347872  68360.421789 -32674.027360 999999.999999
*  2023  2  6  9 48 30.00000000
PL65   -198.597324  -2731.044023  -6305.711572   2104.975029
VL65   6418.611366  69367.426312 -30373.871919 999999.999999
*  2023  2  6  9 49  0.00000000
PL65   -178.779013  -2521.528464  -6393.341724   2105.444094
VL65   6793.065342  70296.552684 -28040.987587 999999.999999
*  2023  2  6  9 49 30.00000000
PL65   -157.842489  -2309.343530  -6473.927330   2105.913364
VL65   7163.962254  71146.858757 -25677.937222 999999.999999
*  2023  2  6  9 50  0.00000000
PL65   -135.799544  -2094.726990  -6547.381771   2106.382786
VL65   7530.554230  71917.488947 -23287.311270 999999.999999
*  2023  2  6  9 50 30.00000000
PL65   -112.664215  -1877.919044  -6613.626239   2106.852162
VL65   7892.094741  72607.675047 -20871.727589 999999.999999
*  2023  2  6  9 51  0.00000000
PL65    -88.452771  -1659.162064  -6672.589821   2107.321424
VL65   8247.839967  73216.739383 -18433.828945 999999.999999
*  2023  2  6  9 51 30.00000000
PL65    -63.183711  -1438.700318  -6724.209560   2107.790995
VL65   8597.049717  73744.096032 -15976.277863 999999.999999
*  2023  2  6  9 52  0.00000000
PL65    -36.877744  -1216.779694  -6768.430514   2108.260092
VL65   8938.988674  74189.249718 -13501.753043 999999.999999
*  2023  2  6  9 52 30.00000000
PL65     -9.557779   -993.647431  -6805.205797   2108.729327
VL65   9272.927861  74551.795399 -11012.947281 999999.999999
*  2023  2  6  9 53  0.00000000
PL65     18.751102   -769.551847  -6834.496620   2109.198546
VL65   9598.145817  74831.418294  -8512.564325 999999.999999
*  2023  2  6  9 53 30.00000000
PL65     48.021661   -544.742073  -6856.272317   2109.667912
VL65   9913.929158  75027.892626  -6003.316035 999999.999999
EOF
